#Pass ID: 20250128_233555_NOAA 20 (JPSS-1)
#Satellite: NOAA 20 (JPSS-1)
#Configuration: NOAA 20 (JPSS-1)
#Start time: 2025-01-28 23:36:00.232533

#LorettStation: 1.0.0 05.05.2024
#Station: Regia
#Location: 37.494653 lon 55.929028 lat
#TLE: 1 43013U 17073A   25027.83462392  .00000206  00000+0  11858-3 0  9995
#TLE: 2 43013  98.7298 328.2082 0000596   6.6962 353.4222 14.19545424372776

#Time	Az	El	Level	SNR
#Closed at: 2025-01-28 23:35:55.234424